OBJECT_NAME,OBJECT_ID,EPOCH,MEAN_MOTION,ECCENTRICITY,INCLINATION,RA_OF_ASC_NODE,ARG_OF_PERICENTER,MEAN_ANOMALY,EPHEMERIS_TYPE,CLASSIFICATION_TYPE,NORAD_CAT_ID,ELEMENT_SET_NO,REV_AT_EPOCH,BSTAR,MEAN_MOTION_DOT,MEAN_MOTION_DDOT
STARLINK-35327,2025-259T,2026-06-04T01:13:10.892928,15.27639856,.00011819,42.9989,146.2288,294.3712,65.7016,0,U,66439,999,3270,.70223557E-3,.19147E-3,0
STARLINK-35405,2025-259U,2026-06-01T09:35:18.982464,15.27587846,.00016289,43.0010,161.5970,277.3804,82.6862,0,U,66440,999,3229,.54400403E-3,.14741E-3,0
STARLINK-35426,2025-259V,2026-06-05T04:25:17.464224,15.27658021,.0001326,42.9999,140.1153,237.6325,122.4399,0,U,66441,999,3287,.73827E-3,.20157E-3,0
STARLINK-34724,2025-259W,2026-06-05T02:16:11.647200,15.27634738,.0000881,43.0002,141.1654,291.9876,68.0882,0,U,66442,999,3285,.63319E-3,.17232E-3,0
STARLINK-35219,2025-259X,2026-06-05T02:10:38.572608,15.27636884,.0000803,42.9997,141.1387,281.8919,78.1842,0,U,66443,999,3274,.71465E-3,.1949E-3,0
STARLINK-35360,2025-259Y,2026-06-03T03:20:32.079552,15.27631274,.00010752,42.9981,151.4227,253.4023,106.6710,0,U,66444,999,3256,.10895789E-2,.29889E-3,0
STARLINK-34698,2025-259Z,2026-06-05T02:05:05.155008,15.27605354,.0001244,43.0020,141.1055,262.5845,97.4865,0,U,66445,999,3274,.67619E-3,.18406E-3,0
STARLINK-34986,2025-259AA,2026-06-05T01:55:50.402208,15.27626183,.0000626,43.0003,141.0623,277.2578,82.8202,0,U,66446,999,3285,.70739E-3,.19282E-3,0
STARLINK-34851,2025-259AB,2026-06-01T10:21:34.458048,15.27594233,.00017799,43.0006,161.8327,269.9064,90.1584,0,U,66447,999,3218,.5926652E-3,.1609E-3,0
STARLINK-35355,2025-259AC,2026-06-05T02:06:56.460672,15.27667144,.0000651,43.0012,141.1143,217.0385,143.0422,0,U,66448,999,3285,.10338E-2,.28372E-3,0
STARLINK-34720,2025-259AD,2026-06-05T01:59:33.905184,15.27642465,.0001454,43.0005,141.0767,260.9265,99.1423,0,U,66449,999,3274,.79841E-3,.21815E-3,0
STARLINK-35334,2025-259AE,2026-06-05T00:19:49.670112,15.27657792,.0001899,43.0023,141.4178,252.6119,107.4525,0,U,66450,999,3284,.86963E-3,.23802E-3,0
STARLINK-35643,2025-262A,2026-06-01T12:30:33.755328,15.27598949,.00015438,43.0012,183.0595,253.7497,106.3185,0,U,66456,999,3172,.47375604E-3,.12805E-3,0
STARLINK-35466,2025-262B,2026-06-03T11:22:18.539616,15.27624334,.0001069,42.9955,171.9121,285.3121,74.7612,0,U,66457,999,3202,.87585482E-3,.23951E-3,0
STARLINK-35684,2025-262C,2026-06-02T08:45:22.364352,15.27607122,.00021648,42.9917,178.2224,268.8250,91.2353,0,U,66458,999,3185,.13477208E-2,.37043E-3,0
STARLINK-35449,2025-262D,2026-06-05T02:26:58.524000,15.27632213,.0000397,42.9966,162.6300,348.1439,11.9403,0,U,66459,999,3227,.65319E-3,.17784E-3,0
STARLINK-35424,2025-262E,2026-06-05T03:33:21.914784,15.27581368,.0001583,43.0008,162.1168,271.1771,88.8899,0,U,66460,999,3228,.69194E-3,.18828E-3,0
STARLINK-35132,2025-262F,2026-06-04T03:57:18.966240,15.27634559,.000146,42.9975,167.6318,229.3457,130.7268,0,U,66461,999,3213,.73695403E-3,.20106E-3,0
STARLINK-35499,2025-262G,2026-06-01T09:49:49.653408,15.27530496,.00012661,42.9989,183.0782,244.4182,115.6539,0,U,66462,999,3171,.67036607E-3,.18203E-3,0
STARLINK-35463,2025-262H,2026-06-03T11:09:21.335328,15.27613859,.00013013,42.9973,171.8396,303.0535,57.0192,0,U,66463,999,3202,.61086293E-3,.16603E-3,0
STARLINK-35435,2025-262J,2026-06-04T03:31:24.695040,15.27628321,.00018903,42.9979,167.4893,183.0121,177.0719,0,U,66464,999,3213,.69068842E-3,.18821E-3,0
STARLINK-35448,2025-262K,2026-06-05T02:38:04.367328,15.27594908,.0001096,42.9982,162.6870,325.9999,34.0782,0,U,66465,999,3227,.66453E-3,.18077E-3,0
STARLINK-35388,2025-262L,2026-06-01T09:57:11.758752,15.27585541,.00019877,43.0009,183.1148,283.5763,76.4867,0,U,66466,999,3171,.26993865E-3,.7174E-4,0
STARLINK-35682,2025-262M,2026-06-04T08:12:14.594112,15.27633780,.00014647,43.0016,167.2465,255.3085,104.7604,0,U,66467,999,3215,.75946384E-3,.2073E-3,0
STARLINK-35331,2025-262N,2026-06-05T01:16:50.011104,15.27656331,.0001287,42.9975,163.1196,231.8182,128.2554,0,U,66468,999,3226,.82797E-3,.22645E-3,0
STARLINK-35451,2025-262P,2026-06-02T21:49:50.426688,15.27609895,.0000973,42.9967,174.5484,163.0548,197.0337,0,U,66469,999,3194,.63641E-3,.17308E-3,0
STARLINK-35655,2025-262Q,2026-06-05T02:25:07.358304,15.27646328,.0000492,42.9974,162.6145,317.1320,42.9493,0,U,66470,999,3227,.82402E-3,.22528E-3,0
STARLINK-35569,2025-262R,2026-06-05T03:37:04.113984,15.27580324,.0001475,43.0001,162.1299,280.6576,79.4109,0,U,66471,999,3228,.81144E-3,.22134E-3,0
STARLINK-35567,2025-262S,2026-06-05T03:18:33.970752,15.27574891,.0001189,43.0020,162.0371,266.3265,93.7450,0,U,66472,999,3228,.93459E-3,.25541E-3,0
STARLINK-35568,2025-262T,2026-06-04T03:24:15.207552,15.27642804,.00019951,42.9991,168.3168,234.3255,125.7411,0,U,66473,999,3212,.1084259E-2,.29753E-3,0
