[ {"name": "STARLINK-35327", "line1": "1 66439U 25259T   26155.05082052  .00019147  00000+0  70224-3 0  9991", "line2": "2 66439  42.9989 146.2288 0001181 294.3712  65.7016 15.27639856 32700"}, {"name": "STARLINK-35405", "line1": "1 66440U 25259U   26152.39952526  .00014741  00000+0  54400-3 0  9992", "line2": "2 66440  43.0010 161.5970 0001628 277.3804  82.6862 15.27587846 32298"}, {"name": "STARLINK-35426", "line1": "1 66441U 25259V   26156.18422991  .00020157  00000+0  73827-3 0  9994", "line2": "2 66441  42.9999 140.1153 0001326 237.6325 122.4399 15.27658021 32877"}, {"name": "STARLINK-34724", "line1": "1 66442U 25259W   26156.09457925  .00017232  00000+0  63319-3 0  9995", "line2": "2 66442  43.0002 141.1654 0000881 291.9876  68.0882 15.27634738 32850"}, {"name": "STARLINK-35219", "line1": "1 66443U 25259X   26156.09072422  .00019490  00000+0  71465-3 0  9990", "line2": "2 66443  42.9997 141.1387 0000803 281.8919  78.1842 15.27636884 32745"}, {"name": "STARLINK-35360", "line1": "1 66444U 25259Y   26154.13926018  .00029889  00000+0  10896-2 0  9996", "line2": "2 66444  42.9981 151.4227 0001075 253.4023 106.6710 15.27631274 32568"}, {"name": "STARLINK-34698", "line1": "1 66445U 25259Z   26156.08686522  .00018406  00000+0  67619-3 0  9995", "line2": "2 66445  43.0020 141.1055 0001244 262.5845  97.4865 15.27605354 32749"}, {"name": "STARLINK-34986", "line1": "1 66446U 25259AA  26156.08044447  .00019282  00000+0  70739-3 0  9990", "line2": "2 66446  43.0003 141.0623 0000626 277.2578  82.8202 15.27626183 32858"}, {"name": "STARLINK-34851", "line1": "1 66447U 25259AB  26152.43164882  .00016090  00000+0  59267-3 0  9999", "line2": "2 66447  43.0006 161.8327 0001779 269.9064  90.1584 15.27594233 32182"}, {"name": "STARLINK-35355", "line1": "1 66448U 25259AC  26156.08815348  .00028372  00000+0  10338-2 0  9996", "line2": "2 66448  43.0012 141.1143 0000651 217.0385 143.0422 15.27667144 32850"}, {"name": "STARLINK-34720", "line1": "1 66449U 25259AD  26156.08303131  .00021815  00000+0  79841-3 0  9999", "line2": "2 66449  43.0005 141.0767 0001454 260.9265  99.1423 15.27642465 32749"}, {"name": "STARLINK-35334", "line1": "1 66450U 25259AE  26156.01376933  .00023802  00000+0  86963-3 0  9995", "line2": "2 66450  43.0023 141.4178 0001899 252.6119 107.4525 15.27657792 32846"}, {"name": "STARLINK-35643", "line1": "1 66456U 25262A   26152.52122402  .00012805  00000+0  47376-3 0  9993", "line2": "2 66456  43.0012 183.0595 0001543 253.7497 106.3185 15.27598949 31726"}, {"name": "STARLINK-35466", "line1": "1 66457U 25262B   26154.47382569  .00023951  00000+0  87585-3 0  9992", "line2": "2 66457  42.9955 171.9121 0001069 285.3121  74.7612 15.27624334 32025"}, {"name": "STARLINK-35684", "line1": "1 66458U 25262C   26153.36484218  .00037043  00000+0  13477-2 0  9999", "line2": "2 66458  42.9917 178.2224 0002164 268.8250  91.2353 15.27607122 31856"}, {"name": "STARLINK-35449", "line1": "1 66459U 25262D   26156.10206625  .00017784  00000+0  65319-3 0  9992", "line2": "2 66459  42.9966 162.6300 0000397 348.1439  11.9403 15.27632213 32271"}, {"name": "STARLINK-35424", "line1": "1 66460U 25262E   26156.14817031  .00018828  00000+0  69194-3 0  9992", "line2": "2 66460  43.0008 162.1168 0001583 271.1771  88.8899 15.27581368 32288"}, {"name": "STARLINK-35132", "line1": "1 66461U 25262F   26155.16480285  .00020106  00000+0  73695-3 0  9994", "line2": "2 66461  42.9975 167.6318 0001460 229.3457 130.7268 15.27634559 32139"}, {"name": "STARLINK-35499", "line1": "1 66462U 25262G   26152.40960247  .00018203  00000+0  67037-3 0  9998", "line2": "2 66462  42.9989 183.0782 0001266 244.4182 115.6539 15.27530496 31710"}, {"name": "STARLINK-35463", "line1": "1 66463U 25262H   26154.46483027  .00016603  00000+0  61086-3 0  9993", "line2": "2 66463  42.9973 171.8396 0001301 303.0535  57.0192 15.27613859 32028"}, {"name": "STARLINK-35435", "line1": "1 66464U 25262J   26155.14681360  .00018821  00000+0  69069-3 0  9993", "line2": "2 66464  42.9979 167.4893 0001890 183.0121 177.0719 15.27628321 32138"}, {"name": "STARLINK-35448", "line1": "1 66465U 25262K   26156.10977277  .00018077  00000+0  66453-3 0  9993", "line2": "2 66465  42.9982 162.6870 0001096 325.9999  34.0782 15.27594908 32273"}, {"name": "STARLINK-35388", "line1": "1 66466U 25262L   26152.41471943  .00007174  00000+0  26994-3 0  9995", "line2": "2 66466  43.0009 183.1148 0001987 283.5763  76.4867 15.27585541 31714"}, {"name": "STARLINK-35682", "line1": "1 66467U 25262M   26155.34183558  .00020730  00000+0  75946-3 0  9997", "line2": "2 66467  43.0016 167.2465 0001464 255.3085 104.7604 15.27633780 32154"}, {"name": "STARLINK-35331", "line1": "1 66468U 25262N   26156.05335661  .00022645  00000+0  82797-3 0  9990", "line2": "2 66468  42.9975 163.1196 0001287 231.8182 128.2554 15.27656331 32267"}, {"name": "STARLINK-35451", "line1": "1 66469U 25262P   26153.90961142  .00017308  00000+0  63641-3 0  9998", "line2": "2 66469  42.9967 174.5484 0000973 163.0548 197.0337 15.27609895 31948"}, {"name": "STARLINK-35655", "line1": "1 66470U 25262Q   26156.10077961  .00022528  00000+0  82402-3 0  9998", "line2": "2 66470  42.9974 162.6145 0000492 317.1320  42.9493 15.27646328 32276"}, {"name": "STARLINK-35569", "line1": "1 66471U 25262R   26156.15074206  .00022134  00000+0  81144-3 0  9998", "line2": "2 66471  43.0001 162.1299 0001475 280.6576  79.4109 15.27580324 32287"}, {"name": "STARLINK-35567", "line1": "1 66472U 25262S   26156.13789318  .00025541  00000+0  93459-3 0  9991", "line2": "2 66472  43.0020 162.0371 0001189 266.3265  93.7450 15.27574891 32287"}, {"name": "STARLINK-35568", "line1": "1 66473U 25262T   26155.14184268  .00029753  00000+0  10843-2 0  9999", "line2": "2 66473  42.9991 168.3168 0001995 234.3255 125.7411 15.27642804 32121"}]